LAPAN-A3                
1 41603U 16040E   26025.52923784  .00005904  00000+0  19334-3 0  9990
2 41603  97.1456  26.5095 0011110 157.2680 202.9056 15.31972971532962
GAOFEN-3                
1 41727U 16049A   26025.51235015  .00000166  00000+0  63681-4 0  9998
2 41727  98.4048  35.4324 0000766 107.1904 252.9370 14.42227088498083
QSS (MOZI)              
1 41731U 16051A   26025.59584823  .08923492  25705-5  78580-3 0  9990
2 41731  97.2883 320.2920 0005981 217.2350 142.8535 16.39290480527954
PRATHAM                 
1 41783U 16059A   26025.49360832  .00001664  00000+0  30377-3 0  9993
2 41783  97.8288  28.6745 0030392 315.1738  44.7012 14.66941977498591
ALSAT-1N                
1 41789U 16059G   26025.50008270  .00001611  00000+0  28163-3 0  9998
2 41789  97.8027  35.2281 0024651 285.5664  74.2821 14.69000466499056
CAS-2T & KS-1Q          
1 41847U 16066G   26025.47915611  .00002754  00000+0  39621-3 0  9993
2 41847  98.3964 102.7881 0342905 202.2399 156.3614 14.44291362484190
YUNHAI-1 01             
1 41857U 16068A   26025.48608126  .00000763  00000+0  29672-3 0  9990
2 41857  98.5894  37.7851 0006733  93.8237 266.3717 14.32686712481399
RESOURCESAT-2A          
1 41877U 16074A   26025.47581480  .00000437  00000+0  21935-3 0  9993
2 41877  98.7686 100.0638 0003042 122.7062 237.4409 14.21601689474024
TANSAT                  
1 41898U 16081A   26025.55130184  .00000693  00000+0  15509-3 0  9998
2 41898  98.5323  21.6414 0021336  32.5124 327.7384 14.59825411483810
JILIN-1 03              
1 41914U 17002B   26025.50342111  .00019900  00000+0  54068-3 0  9995
2 41914  97.1997  34.9641 0005482 349.6244  10.4887 15.37587477499904
CARTOSAT-2D             
1 41948U 17008A   26025.30085178  .00009181  00000+0  43912-3 0  9999
2 41948  97.4324  87.1188 0005764  25.3953 334.7564 15.19196230495882
CARTOSAT-2E             
1 42767U 17036C   26025.51528508  .00009831  00000+0  46959-3 0  9998
2 42767  97.4487  87.5145 0004300  75.6139 284.5572 15.19229997476481
D-SAT                   
1 42794U 17036AF  26024.93239159  .00015279  00000+0  75883-3 0  9995
2 42794  97.5425   4.5924 0083702 298.6329  60.6502 15.14680947469152
IRIDIUM 113             
1 42803U 17039A   26025.49397019  .00000163  00000+0  51170-4 0  9991
2 42803  86.3962  21.7968 0002275  91.6784 268.4672 14.34217458450730
NORSAT 2                
1 42828U 17042D   26025.46639092  .00019756  00000+0  96145-3 0  9997
2 42828  97.3926 201.5790 0009855 187.3686 172.7405 15.18377640466051
TECHNOSAT               
1 42829U 17042E   26025.45086563  .00006780  00000+0  49532-3 0  9997
2 42829  97.4090 188.7933 0017277 217.9706 142.0303 15.03841324465246
FLYING LAPTOP           
1 42831U 17042G   26025.49455250  .00004676  00000+0  37774-3 0  9994
2 42831  97.4216 187.1212 0014653 247.2415 112.7261 15.00198725465053
WNISAT 1R               
1 42835U 17042L   26025.39545970  .00005714  00000+0  45441-3 0  9990
2 42835  97.4305 187.0715 0011786 282.3163  77.6742 15.00740126465081
LEMUR-2-GREENBERG       
1 42837U 17042N   26025.47647043  .00026809  00000+0  10365-2 0  9999
2 42837  97.3732 207.3140 0009799 145.6712 214.5161 15.26157451466580
LEMUR-2-FURIAUS         
1 42840U 17042R   26025.46106534  .00034225  00000+0  14127-2 0  9998
2 42840  97.3720 205.6449 0007576 207.8512 152.2320 15.23928494466422
CORVUS BC2              
1 42846U 17042X   26025.45536059  .00006649  00000+0  46987-3 0  9991
2 42846  97.3891 192.5916 0012135 237.1611 122.8448 15.05154987465581
CORVUS BC1              
1 42847U 17042Y   26025.40231243  .00007417  00000+0  52004-3 0  9995
2 42847  97.3922 193.2528 0011462 212.7117 147.3402 15.05417905465603
VRSS-2                  
1 42954U 17060A   26025.49969243  .00001017  00000+0  13780-3 0  9999
2 42954  97.6728  69.5271 0016458 201.9416 158.1094 14.80912992447336
MOHAMMED VI-A           
1 43005U 17070A   26025.54619094  .00001263  00000+0  18584-3 0  9990
2 43005  97.9515  99.9280 0001241  82.6345 277.5006 14.77124944442924
FENGYUN 3D              
1 43010U 17072A   26025.50461972  .00000046  00000+0  43592-4 0  9990
2 43010  98.9962 357.4844 0002523  89.7890 270.3575 14.19699798424744
CZ-4C R/B               
1 43012U 17072C   26025.29703220  .00001128  00000+0  22978-3 0  9999
2 43012  98.5722 128.7252 0121901 231.7191 127.2992 14.58619986435809
NOAA 20 (JPSS-1)        
1 43013U 17073A   26025.47986292  .00000161  00000+0  97249-4 0  9993
2 43013  98.7646 326.3091 0001052  24.2709 335.8516 14.19540188424225
MAKERSAT 0              
1 43016U 17073D   26023.40921945  .00028207  00000+0  89469-3 0  9996
2 43016  97.4850 265.2939 0124516  65.6902 295.7281 15.25329832444345
RADFXSAT (FOX-1B)       
1 43017U 17073E   26024.60483917  .00011629  00000+0  53269-3 0  9991
2 43017  97.4911 254.8470 0159902 103.1493 258.7634 15.09857970443709
JILIN-1 04              
1 43022U 17074A   26025.44163678  .00019692  00000+0  52365-3 0  9994
2 43022  97.4780 131.7864 0004172   4.0454 356.0823 15.38266768452290
JILIN-1 05              
1 43023U 17074B   26025.48215580  .00009886  00000+0  32465-3 0  9992
2 43023  97.4800 130.0295 0005902  29.2666 330.8905 15.31766219452144
JILIN-1 06              
1 43024U 17074C   26025.51650604  .00010250  00000+0  33699-3 0  9994
2 43024  97.4740 127.2082 0007895  36.4593 323.7185 15.31706893451986
IRIDIUM 116             
1 43072U 17083C   26025.46858756  .00000383  00000+0  12973-3 0  9997
2 43072  86.3958  21.6406 0002067  79.7147 280.4282 14.34219914423717
IRIDIUM 130             
1 43073U 17083D   26025.50665487  .00000356  00000+0  12014-3 0  9996
2 43073  86.3964  21.8862 0002250  80.7865 279.3585 14.34219174423661
LKW-2                   
1 43080U 17084A   26025.54178737  .00012231  00000+0  50359-3 0  9995
2 43080  97.1413  72.0477 0003283  54.3090 305.8453 15.24246729449946
SUPERVIEW-1 03          
1 43099U 18002A   26025.51149095  .00024414  00000+0  70796-3 0  9991
2 43099  97.3236 111.0336 0051974 334.9809  24.8916 15.34155660446453
CARTOSAT-2F             
1 43111U 18004A   26025.48162950  .00010084  00000+0  48032-3 0  9995
2 43111  97.4251  87.3963 0001873  54.1799 305.9610 15.19325298445664
LKW-3                   
1 43146U 18006A   26025.49605314  .00020112  00000+0  65530-3 0  9997
2 43146  97.6412 180.9928 0004081  91.2746 268.8962 15.31858758446846
ASNARO-2                
1 43152U 18007A   26025.49148157  .00014649  00000+0  63712-3 0  9990
2 43152  97.4026  34.6046 0001813  53.2135 306.9267 15.22357727445704
JILIN-1 07              
1 43159U 18008E   26025.51305325  .00012492  00000+0  40527-3 0  9996
2 43159  97.1910  49.4029 0007899 198.6617 161.4337 15.32069534443138
JILIN-1 08              
1 43160U 18008F   26025.50101968  .00013751  00000+0  45637-3 0  9990
2 43160  97.1935  48.8302 0005160 210.7412 149.3528 15.31332797443097
LEMUR-2-KADI            
1 43184U 18014E   26025.24520060  .00095275  00000+0  13357-2 0  9996
2 43184  97.4811 307.6282 0007633  72.9346 287.2744 15.56407430438611
S-NET D                 
1 43186U 18014G   26025.28977793  .00009941  00000+0  53519-3 0  9991
2 43186  97.5469 291.0452 0009270 143.2497 216.9372 15.14996875437116
S-NET B                 
1 43187U 18014H   26025.29855564  .00009163  00000+0  49390-3 0  9992
2 43187  97.5474 291.0356 0010123 139.6116 220.5869 15.14969895437116
S-NET A                 
1 43188U 18014J   26025.28930521  .00009998  00000+0  53806-3 0  9992
2 43188  97.5482 291.2100 0009942 140.1860 220.0103 15.15002950437112
S-NET C                 
1 43189U 18014K   26025.23563911  .00009036  00000+0  48704-3 0  9997
2 43189  97.5499 291.2090 0011578 134.6610 225.5568 15.14961814435652
PAZ                     
1 43215U 18020A   26025.17284523  .00003963  00000+0  19174-3 0  9998
2 43215  97.4456  34.6023 0001692  89.3540 270.7888 15.19165990439290
GOES 17                 
1 43226U 18022A   26025.51294743 -.00000169  00000+0  00000+0 0  9995
2 43226   0.5687  88.4004 0003024 202.6611 288.9028  1.00270776 28991
LKW-4                   
1 43236U 18025A   26025.44327712  .00045605  00000+0  78189-3 0  9994
2 43236  97.6207 186.4788 0003445  98.9759 261.1882 15.51065818437828
ZHUHAI-1 OVS-02         
1 43440U 18040B   26025.49420664  .00010017  00000+0  42788-3 0  9998
2 43440  97.0533  51.2753 0005265  59.8614 300.3145 15.23042038430986
ZHUHAI-1 OHS-02         
1 43441U 18040C   26025.55043133  .00011033  00000+0  46130-3 0  9992
2 43441  97.0554  58.1169 0010481  27.4018 332.7770 15.23704450 92544
GAOFEN-6                
1 43484U 18048A   26025.49407961  .00001861  00000+0  27349-3 0  9992
2 43484  97.7961  93.2778 0010753 279.1761  80.8233 14.76575432412330
LUOJIA-1 01             
1 43485U 18048B   26025.51665238  .00003807  00000+0  43490-3 0  9996
2 43485  97.8231 105.9947 0008139 224.0417 136.0151 14.86621184413019
PAKTES 1A               
1 43529U 18056A   26025.52693484  .00002889  00000+0  24769-3 0  9996
2 43529  98.1048 176.2013 0020791 224.1698 135.7864 14.98225645410551
PRSS-1                  
1 43530U 18056B   26025.51179258  .00001870  00000+0  24387-3 0  9990
2 43530  97.8002  97.2466 0001756  94.2757 265.8657 14.81706622407300
HAIYANG-1C              
1 43609U 18068A   26025.50067770  .00000398  00000+0  15772-3 0  9996
2 43609  98.5361  99.7814 0011399 152.5959 207.5829 14.34126588386634
SSTL S1-4               
1 43618U 18071A   26025.57254233  .00001214  00000+0  11242-3 0  9995
2 43618  97.5235 262.9156 0000398  64.5623 295.5640 14.96256185401612
HAIYANG-2B              
1 43655U 18081A   26025.55179863  .00000210  00000+0  24741-3 0  9993
2 43655  99.3334  36.4376 0000606 359.5171   0.5980 13.79304229365262
CZ-4B R/B               
1 43656U 18081B   26025.35146712  .00000568  00000+0  18679-3 0  9998
2 43656  99.3747 291.8673 0204378 318.4132  40.1655 14.31794210378862
